NORAD_CAT_ID,OBJECT_NAME,OBJECT_TYPE,EPOCH,MEAN_MOTION,ECCENTRICITY,INCLINATION,RA_OF_ASC_NODE,ARG_OF_PERICENTER,MEAN_ANOMALY,BSTAR,MEAN_MOTION_DOT,MEAN_MOTION_DDOT,TLE_LINE0,TLE_LINE1,TLE_LINE2,SEMIMAJOR_AXIS,PERIOD,APOGEE,PERIGEE,DECAYED
55949.0,STARLINK-5899,PAYLOAD,2024-02-08 09:22:26,14.9833039,0.0002624,70.0013,21.6046,261.8233,98.2628,1.6473e-05,1.04e-06,0.0,0 STARLINK-5899,1 55949U 23037AM  24039.39057894  .00000104  00000-0  16473-4 0  9990,2 55949  70.0013  21.6046 0002624 261.8233  98.2628 14.98330390 50924,6950.192,96.107,573.88,570.233,0.0
55949.0,STARLINK-5899,PAYLOAD,2024-02-09 09:24:27,14.98310965,0.0003022,70.0012,19.0803,271.7841,88.2972,0.00027281,3.162e-05,0.0,0 STARLINK-5899,1 55949U 23037AM  24040.39198600  .00003162  00000-0  27281-3 0  9998,2 55949  70.0012  19.0803 0003022 271.7841  88.2972 14.98310965 51077,6950.252,96.108,574.217,570.016,0.0
55949.0,STARLINK-5899,PAYLOAD,2024-02-10 03:01:55,14.98329928,0.0002764,70.0012,17.2298,260.8762,99.2085,4.7131e-06,-3.7e-07,0.0,0 STARLINK-5899,1 55949U 23037AM  24041.12633992 -.00000037  00000-0  47131-5 0  9995,2 55949  70.0012  17.2298 0002764 260.8762  99.2085 14.98329928 51186,6950.193,96.107,573.979,570.137,0.0
55949.0,STARLINK-5899,PAYLOAD,2024-02-10 07:50:19,14.98331436,0.0002775,70.0011,16.7239,262.4692,97.6152,3.0859e-05,2.75e-06,0.0,0 STARLINK-5899,1 55949U 23037AM  24041.32661826  .00000275  00000-0  30859-4 0  9995,2 55949  70.0011  16.7239 0002775 262.4692  97.6152 14.98331436 50875,6950.188,96.107,573.982,570.125,0.0
55949.0,STARLINK-5899,PAYLOAD,2024-02-11 03:03:56,14.9832812,0.0002826,70.0011,14.7046,262.2418,97.842,1.7808e-05,1.2e-06,0.0,0 STARLINK-5899,1 55949U 23037AM  24042.12774091  .00000120  00000-0  17808-4 0  9991,2 55949  70.0011  14.7046 0002826 262.2418  97.8420 14.98328120 51338,6950.199,96.107,574.028,570.1,0.0
55949.0,STARLINK-5899,PAYLOAD,2024-02-11 07:52:20,14.98330288,0.0002837,70.0012,14.1997,265.4215,94.662,4.1791e-05,4.06e-06,0.0,0 STARLINK-5899,1 55949U 23037AM  24042.32801917  .00000406  00000-0  41791-4 0  9996,2 55949  70.0012  14.1997 0002837 265.4215  94.6620 14.98330288 51021,6950.192,96.107,574.029,570.085,0.0
55949.0,STARLINK-5899,PAYLOAD,2024-02-11 22:17:33,14.98333931,0.0002891,70.0013,12.6853,267.3145,92.7683,8.5161e-06,9e-08,0.0,0 STARLINK-5899,1 55949U 23037AM  24042.92885723  .00000009  00000-0  85161-5 0  9998,2 55949  70.0013  12.6853 0002891 267.3145  92.7683 14.98333931 51115,6950.181,96.107,574.055,570.036,0.0
55949.0,STARLINK-5899,PAYLOAD,2024-02-12 03:05:57,14.983341,0.0002895,70.0013,12.1801,266.9267,93.1561,1.0366e-05,3.1e-07,0.0,0 STARLINK-5899,1 55949U 23037AM  24043.12913649  .00000031  00000-0  10366-4 0  9999,2 55949  70.0013  12.1801 0002895 266.9267  93.1561 14.98334100 51486,6950.18,96.107,574.057,570.033,0.0
55949.0,STARLINK-5899,PAYLOAD,2024-02-12 07:54:21,14.98339148,0.0002811,70.0014,11.675,266.1327,93.9511,7.3799e-05,7.88e-06,0.0,0 STARLINK-5899,1 55949U 23037AM  24043.32941076  .00000788  00000-0  73799-4 0  9994,2 55949  70.0014  11.6750 0002811 266.1327  93.9511 14.98339148 51177,6950.165,96.106,573.983,570.076,0.0
55949.0,STARLINK-5899,PAYLOAD,2024-02-12 22:19:34,14.98328622,0.0002316,70.0027,10.1608,252.1828,107.9079,1.5091e-05,8.7e-07,0.0,0 STARLINK-5899,1 55949U 23037AM  24043.93025814  .00000087  00000-0  15091-4 0  9997,2 55949  70.0027  10.1608 0002316 252.1828 107.9079 14.98328622 51268,6950.197,96.107,573.672,570.452,0.0
55949.0,STARLINK-5899,PAYLOAD,2024-02-13 04:44:06,14.98326281,0.0002431,70.0025,9.4877,251.3488,108.7407,6.2038e-06,-1.9e-07,0.0,0 STARLINK-5899,1 55949U 23037AM  24044.19729988 -.00000019  00000-0  62038-5 0  9999,2 55949  70.0025   9.4877 0002431 251.3488 108.7407 14.98326281 51641,6950.204,96.107,573.759,570.38,0.0
55949.0,STARLINK-5899,PAYLOAD,2024-02-13 14:20:55,14.98320785,0.0002769,70.0014,8.4761,272.0411,88.0431,-0.00014754,-1.852e-05,0.0,0 STARLINK-5899,1 55949U 23037AM  24044.59786773 -.00001852  00000-0 -14754-3 0  9995,2 55949  70.0014   8.4761 0002769 272.0411  88.0431 14.98320785 51369,6950.221,96.108,574.011,570.162,0.0
55949.0,STARLINK-5899,PAYLOAD,2024-02-13 22:21:35,14.98329507,0.0003204,70.0002,7.6346,261.9785,98.1011,-0.0001024,-1.315e-05,0.0,0 STARLINK-5899,1 55949U 23037AM  24044.93166021 -.00001315  00000-0 -10240-3 0  9991,2 55949  70.0002   7.6346 0003204 261.9785  98.1011 14.98329507 51415,6950.194,96.107,574.286,569.833,0.0
55949.0,STARLINK-5899,PAYLOAD,2024-02-14 04:46:07,14.98331722,0.0003127,70.0004,6.9612,263.2761,96.8042,-6.4039e-05,-8.57e-06,0.0,0 STARLINK-5899,1 55949U 23037AM  24045.19869779 -.00000857  00000-0 -64039-4 0  9996,2 55949  70.0004   6.9612 0003127 263.2761  96.8042 14.98331722 51790,6950.188,96.107,574.226,569.879,0.0
55949.0,STARLINK-5899,PAYLOAD,2024-02-14 11:10:38,14.98345878,0.0002815,70.0014,6.2878,269.804,90.2797,9.4369e-05,1.034e-05,0.0,0 STARLINK-5899,1 55949U 23037AM  24045.46572348  .00001034  00000-0  94369-4 0  9994,2 55949  70.0014   6.2878 0002815 269.8040  90.2797 14.98345878 51830,6950.144,96.106,573.965,570.052,0.0
55949.0,STARLINK-5899,PAYLOAD,2024-02-14 14:22:56,14.98311443,0.0002915,70.001,5.9508,269.7189,90.3636,-0.00014849,-1.863e-05,0.0,0 STARLINK-5899,1 55949U 23037AM  24045.59927062 -.00001863  00000-0 -14849-3 0  9991,2 55949  70.0010   5.9508 0002915 269.7189  90.3636 14.98311443 51515,6950.25,96.108,574.141,570.089,0.0
55949.0,STARLINK-5899,PAYLOAD,2024-02-14 22:23:37,14.98317885,0.0003074,70.0005,5.1092,268.2433,91.8374,-8.9368e-05,-1.159e-05,0.0,0 STARLINK-5899,1 55949U 23037AM  24045.93306744 -.00001159  00000-0 -89368-4 0  9994,2 55949  70.0005   5.1092 0003074 268.2433  91.8374 14.98317885 51568,6950.23,96.108,574.232,569.959,0.0
55949.0,STARLINK-5899,PAYLOAD,2024-02-15 03:12:00,14.98322904,0.0003074,70.0005,4.6045,266.8835,93.1972,-3.8013e-05,-5.46e-06,0.0,0 STARLINK-5899,1 55949U 23037AM  24046.13334390 -.00000546  00000-0 -38013-4 0  9995,2 55949  70.0005   4.6045 0003074 266.8835  93.1972 14.98322904 51938,6950.215,96.107,574.216,569.943,0.0
55949.0,STARLINK-5899,PAYLOAD,2024-02-15 11:12:40,14.98334991,0.0003029,70.0005,3.7626,268.7129,91.3683,6.6623e-05,7.02e-06,0.0,0 STARLINK-5899,1 55949U 23037AM  24046.46713414  .00000702  00000-0  66623-4 0  9999,2 55949  70.0005   3.7626 0003029 268.7129  91.3683 14.98334991 51983,6950.177,96.107,574.148,569.937,0.0
55949.0,STARLINK-5899,PAYLOAD,2024-02-15 14:24:57,14.98323299,0.0002688,70.001,3.4264,276.9548,83.1305,-9.553e-05,-1.232e-05,0.0,0 STARLINK-5899,1 55949U 23037AM  24046.60066715 -.00001232  00000-0 -95530-4 0  9990,2 55949  70.0010   3.4264 0002688 276.9548  83.1305 14.98323299 51664,6950.214,96.107,573.947,570.21,0.0
55949.0,STARLINK-5899,PAYLOAD,2024-02-15 22:25:37,14.98322078,0.0003081,70.0008,2.5844,267.5809,92.4997,5.7756e-05,5.96e-06,0.0,0 STARLINK-5899,1 55949U 23037AM  24046.93446305  .00000596  00000-0  57756-4 0  9991,2 55949  70.0008   2.5844 0003081 267.5809  92.4997 14.98322078 51719,6950.217,96.108,574.224,569.941,0.0
55949.0,STARLINK-5899,PAYLOAD,2024-02-16 04:50:09,14.98337869,0.0003044,70.0005,1.9109,266.4579,93.6232,3.2764e-05,2.98e-06,0.0,0 STARLINK-5899,1 55949U 23037AM  24047.20149354  .00000298  00000-0  32764-4 0  9997,2 55949  70.0005   1.9109 0003044 266.4579  93.6232 14.98337869 52095,6950.169,96.106,574.149,569.918,0.0
55949.0,STARLINK-5899,PAYLOAD,2024-02-16 14:26:57,14.98337664,0.0002984,70.0006,0.9009,265.8134,94.2684,-7.808e-05,-1.025e-05,0.0,0 STARLINK-5899,1 55949U 23037AM  24047.60205471 -.00001025  00000-0 -78080-4 0  9996,2 55949  70.0006   0.9009 0002984 265.8134  94.2684 14.98337664 51816,6950.169,96.107,574.108,569.96,0.0
55949.0,STARLINK-5899,PAYLOAD,2024-02-16 22:27:38,14.98319291,0.000295,70.0006,0.0597,269.6157,90.4663,0.00013749,1.547e-05,0.0,0 STARLINK-5899,1 55949U 23037AM  24047.93586170  .00001547  00000-0  13749-3 0  9997,2 55949  70.0006   0.0597 0002950 269.6157  90.4663 14.98319291 51865,6950.226,96.108,574.141,570.041,0.0
55949.0,STARLINK-5899,PAYLOAD,2024-02-17 03:16:02,14.98324392,0.0002792,70.0009,359.5532,265.9881,94.0959,7.0756e-05,7.51e-06,0.0,0 STARLINK-5899,1 55949U 23037AM  24048.13614094  .00000751  00000-0  70756-4 0  9995,2 55949  70.0009 359.5532 0002792 265.9881  94.0959 14.98324392 52234,6950.21,96.107,574.016,570.135,0.0
55949.0,STARLINK-5899,PAYLOAD,2024-02-17 14:28:59,14.9831695,0.0002594,70.0013,358.3754,271.9579,88.1283,0.00022761,2.623e-05,0.0,0 STARLINK-5899,1 55949U 23037AM  24048.60346288  .00002623  00000-0  22761-3 0  9996,2 55949  70.0013 358.3754 0002594 271.9579  88.1283 14.98316950 51967,6950.233,96.108,573.901,570.295,0.0
55949.0,STARLINK-5899,PAYLOAD,2024-02-17 22:29:39,14.98325671,0.0002823,70.0018,357.5342,266.34,93.7436,6.1495e-05,6.41e-06,0.0,0 STARLINK-5899,1 55949U 23037AM  24048.93726006  .00000641  00000-0  61495-4 0  9998,2 55949  70.0018 357.5342 0002823 266.3400  93.7436 14.98325671 52011,6950.206,96.107,574.033,570.109,0.0
55949.0,STARLINK-5899,PAYLOAD,2024-02-18 03:18:03,14.98330065,0.0002851,70.0016,357.0293,270.1154,89.9678,-5.1247e-06,-1.54e-06,0.0,0 STARLINK-5899,1 55949U 23037AM  24049.13753931 -.00000154  00000-0 -51247-5 0  9994,2 55949  70.0016 357.0293 0002851 270.1154  89.9678 14.98330065 52387,6950.193,96.107,574.039,570.076,0.0
55949.0,STARLINK-5899,PAYLOAD,2024-02-18 06:30:19,14.98333117,0.0002688,70.0019,356.693,269.9393,90.1458,3.3579e-05,3.08e-06,0.0,0 STARLINK-5899,1 55949U 23037AM  24049.27105639  .00000308  00000-0  33579-4 0  9991,2 55949  70.0019 356.6930 0002688 269.9393  90.1458 14.98333117 52068,6950.183,96.107,573.916,570.18,0.0
55949.0,STARLINK-5899,PAYLOAD,2024-02-18 22:31:39,14.98330847,0.0002725,70.0022,355.01,274.1925,85.8923,4.2315e-05,4.12e-06,0.0,0 STARLINK-5899,1 55949U 23037AM  24049.93865599  .00000412  00000-0  42315-4 0  9996,2 55949  70.0022 355.0100 0002725 274.1925  85.8923 14.98330847 52161,6950.19,96.107,573.949,570.161,0.0
